#aV2011  4 27  0  0   .00000000      96 DD+AD WGS84 FIT  NGA
## 1633 259200.00000000   900.00000000 55678  .0000000000000
+   32     1  2  3  4  5  6  7  8  9 10 11 12 13 14 15 16 17
+         18 19 20 21 22 23 24 25 26 27 28 29 30 31 32  0  0
+          0  0  0  0  0  0  0  0  0  0  0  0  0  0  0  0  0
+          0  0  0  0  0  0  0  0  0  0  0  0  0  0  0  0  0
+          0  0  0  0  0  0  0  0  0  0  0  0  0  0  0  0  0
++         0  0  0  0  0  0  0  0  0  0  0  0  0  0  0  0  0
++         0  0  0  0  0  0  0  0  0  0  0  0  0  0  0  0  0
++         0  0  0  0  0  0  0  0  0  0  0  0  0  0  0  0  0
++         0  0  0  0  0  0  0  0  0  0  0  0  0  0  0  0  0
++         0  0  0  0  0  0  0  0  0  0  0  0  0  0  0  0  0
%c cc cc ccc ccc cccc cccc cccc cccc ccccc ccccc ccccc ccccc
%c cc cc ccc ccc cccc cccc cccc cccc ccccc ccccc ccccc ccccc
%f  0.0000000  0.000000000  0.00000000000  0.000000000000000
%f  0.0000000  0.000000000  0.00000000000  0.000000000000000
%i    0    0    0    0      0      0      0      0         0
%i    0    0    0    0      0      0      0      0         0
/*      NGA, ST. LOUIS,MO.                                  
/*   EPHEMERIS COMPUTED FROM  3 DAYS OF DATA                
/* CCCCCCCCCCCCCCCCCCCCCCCCCCCCCCCCCCCCCCCCCCCCCCCCCCCCCCCCC
/* CCCCCCCCCCCCCCCCCCCCCCCCCCCCCCCCCCCCCCCCCCCCCCCCCCCCCCCCC
*  2011  4 27 16 15   .00000000                                                 
P  1  -8645.657635 -12454.382473 -21928.078015   -225.335393                    
V  1  24168.444280 -13196.601408  -1900.791357      -.024359                    
P  2  13626.136135  13047.716583 -18835.677645    333.236759                    
V  2  -1698.021231  23897.705860  14804.482089       .021513                    
P  3 -24564.554886 -10485.480235    753.986673    707.611046                    
V  3    162.195566  -3849.122921 -30795.999941       .050680                    
P  4   7282.243235  23033.267095 -10841.696732     99.928732                    
V  4  -3646.793981  13529.536586  27151.578148       .105209                    
P  5  20525.394126   2351.030470 -16768.155320   -151.101015                    
V  5 -17771.894240  11766.734075 -20022.404202      -.057762                    
P  6 -22689.257227 -13894.229993  -1856.100368    586.882725                    
V  6   3867.281956  -1792.872218 -30922.425311     -1.023237                    
P  7  -6043.374784  24612.864570  -7575.856594      9.324002                    
V  7  -2050.903622  -9743.824606 -30214.177134       .010687                    
P  8   -920.949803  26064.542283   3060.583099      7.813859                    
V  8  -2548.661932   3646.687204 -32583.146674       .000569                    
P  9  13524.641887  -9579.753842  20203.758490     76.372972                    
V  9    686.078903  26852.614467  11958.598121       .023392                    
P 10   6965.559029  13910.787399 -21737.594702    -72.585839                    
V 10 -24233.460761  12225.139943    427.245587      -.008752                    
P 11 -15089.168804   7543.376845  20156.137468   -146.135917                    
V 11  -6888.330331 -25816.670438   4786.614283      -.031910                    
P 12  23938.836529 -11157.962568   1705.691252     -8.667395                    
V 12   -738.583313   3220.203145  32082.106474       .027592                    
P 13  -7226.366340  12820.587563 -22252.473836    273.431173                    
V 13 -22535.047255 -16318.495735  -2151.735783      -.015452                    
P 14 -10686.807618 -19472.983608  14821.046564    146.543774                    
V 14  15966.096970   9353.711805  23921.456905       .023679                    
P 15  21937.659468    414.975685  15086.283180   -132.150175                    
V 15  15362.406409  11569.973793 -22502.697681       .027720                    
P 16 -19510.017860  -3707.957304 -17759.574510   -168.152722                    
V 16  19552.352573 -11099.910969 -18835.897646      -.026889                    
P 17  10599.085376  19454.252490  14953.125714    184.366736                    
V 17 -16624.560065  -8671.187800  23059.218322       .000015                    
P 18   9343.860174 -18651.565338  16533.457175    134.059482                    
V 18  19470.332075  -7317.470568 -20004.029463       .019749                    
P 19 -22738.203874  -5484.326702  12907.521516   -134.765237                    
V 19 -11855.081654 -11326.204987 -25353.728653      -.039113                    
P 20 -22091.532616  14590.553100  -1801.339248     49.062081                    
V 20  -3717.231134  -2112.617180  31071.142947       .001362                    
P 21   4855.980565 -25148.277644  -5268.808927   -140.394335                    
V 21   3916.925090   7499.067206 -30510.645994      -.026005                    
P 22  -2454.156440 -16292.761807  20985.921690    149.574098                    
V 22  23824.589364 -11387.732258  -6209.949399      -.003463                    
P 23 -18330.418293   3965.647747 -18940.842123    310.407038                    
V 23 -19608.017767 -13751.461084  15758.468471      -.026322                    
P 24 -14448.435508  12018.883914  18715.817876    385.173829                    
V 24    211.156254 -23845.478567  15800.230741       .032757                    
P 25  16717.059900 -17733.409993 -10548.992319      -.943315                    
V 25  12849.467947  -4423.542248  27862.248719       .003926                    
P 26  22959.715720  12625.797616   4927.704705    -14.382631                    
V 26   4629.796617   5422.737357 -31259.548332      -.107011                    
P 27  14965.095015  -2589.100818  22429.230267    259.528329                    
V 27    779.197873  26853.688005   2969.870187       .034969                    
P 28  -1843.697116  16761.960038  20975.187349     34.115983                    
V 28 -23263.484004  10450.558371 -10913.516453       .025019                    
P 29  10557.558795 -11098.808720 -21616.100199    203.148451                    
V 29  22812.623783  15606.285419   3160.727131       .030395                    
P 30 -12850.360865  -9829.206815 -21479.335820    340.031093                    
V 30  22303.758491 -13985.457747  -7050.683912       .027654                    
P 31  -7733.019904 -21754.300238 -12733.934719     72.369056                    
V 31   2636.183150 -16458.896895  26310.438713       .053167                    
P 32 -24961.203515   6357.946777   5793.981571   -243.197619                    
V 32   5235.790498  -5744.313092  30741.965502      -.072856                    
EOF
